{
    "links": {
        "self": "http://www.neowsapp.com/rest/v1/neo/54075999?api_key=iIulBulltgU6a56xZRHN4H3l9WmuAYTsLGpBGhQ2"
    },
    "id": "54075999",
    "neo_reference_id": "54075999",
    "name": "(2020 UA4)",
    "designation": "2020 UA4",
    "nasa_jpl_url": "http://ssd.jpl.nasa.gov/sbdb.cgi?sstr=54075999",
    "absolute_magnitude_h": 25.963,
    "estimated_diameter": {
        "kilometers": {
            "estimated_diameter_min": 0.0170590553,
            "estimated_diameter_max": 0.0381452072
        },
        "meters": {
            "estimated_diameter_min": 17.0590552828,
            "estimated_diameter_max": 38.1452072442
        },
        "miles": {
            "estimated_diameter_min": 0.0106000022,
            "estimated_diameter_max": 0.0237023256
        },
        "feet": {
            "estimated_diameter_min": 55.968030934,
            "estimated_diameter_max": 125.1483217352
        }
    },
    "is_potentially_hazardous_asteroid": false,
    "close_approach_data": [
        {
            "close_approach_date": "1925-05-08",
            "close_approach_date_full": "1925-May-08 14:41",
            "epoch_date_close_approach": -1409044740000,
            "relative_velocity": {
                "kilometers_per_second": "12.6661940788",
                "kilometers_per_hour": "45598.2986835691",
                "miles_per_hour": "28333.0095347988"
            },
            "miss_distance": {
                "astronomical": "0.0895284088",
                "lunar": "34.8265510232",
                "kilometers": "13393259.260969256",
                "miles": "8322185.3999014928"
            },
            "orbiting_body": "Mars"
        },
        {
            "close_approach_date": "1932-09-04",
            "close_approach_date_full": "1932-Sep-04 06:47",
            "epoch_date_close_approach": -1177866780000,
            "relative_velocity": {
                "kilometers_per_second": "14.734810402",
                "kilometers_per_hour": "53045.317447074",
                "miles_per_hour": "32960.2973881555"
            },
            "miss_distance": {
                "astronomical": "0.2972107422",
                "lunar": "115.6149787158",
                "kilometers": "44462093.974239114",
                "miles": "27627464.0930592132"
            },
            "orbiting_body": "Earth"
        },
        {
            "close_approach_date": "2020-10-14",
            "close_approach_date_full": "2020-Oct-14 12:35",
            "epoch_date_close_approach": 1602678900000,
            "relative_velocity": {
                "kilometers_per_second": "6.9201863387",
                "kilometers_per_hour": "24912.6708194328",
                "miles_per_hour": "15479.7648211081"
            },
            "miss_distance": {
                "astronomical": "0.0416162044",
                "lunar": "16.1887035116",
                "kilometers": "6225695.535724628",
                "miles": "3868467.8226627464"
            },
            "orbiting_body": "Earth"
        }
    ],
    "orbital_data": {
        "orbit_id": "1",
        "orbit_determination_date": "2020-10-23 05:12:28",
        "first_observation_date": "2020-10-07",
        "last_observation_date": "2020-10-23",
        "data_arc_in_days": 16,
        "observations_used": 21,
        "orbit_uncertainty": "7",
        "minimum_orbit_intersection": ".0417977",
        "jupiter_tisserand_invariant": "3.247",
        "epoch_osculation": "2459000.5",
        "eccentricity": ".5771140028537385",
        "semi_major_axis": "2.44512633947468",
        "inclination": "1.19605492856963",
        "ascending_node_longitude": "256.5575265024937",
        "orbital_period": "1396.530364322558",
        "perihelion_distance": "1.034009690217339",
        "perihelion_argument": "129.0559916885787",
        "aphelion_distance": "3.856242988732022",
        "perihelion_time": "2459140.446449162592",
        "mean_anomaly": "323.9243635615668",
        "mean_motion": ".2577817204673757",
        "equinox": "J2000",
        "orbit_class": {
            "orbit_class_type": "AMO",
            "orbit_class_description": "Near-Earth asteroid orbits similar to that of 1221 Amor",
            "orbit_class_range": "1.017 AU < q (perihelion) < 1.3 AU"
        }
    },
    "is_sentry_object": false
}